{
"type": "FeatureCollection",
"name": "merged_boundary_bexley",
"crs": { "type": "name", "properties": { "name": "urn:ogc:def:crs:OGC:1.3:CRS84" } },
"features": [
{ "type": "Feature", "properties": { }, "geometry": { "type": "Polygon", "coordinates": [ [ [ 0.0779899804, 51.431239997900001 ], [ 0.0719199954, 51.429999986399999 ], [ 0.064829988, 51.4252299833 ], [ 0.0573900037, 51.431069976 ], [ 0.0540600025, 51.432819967199997 ], [ 0.054339993, 51.435059943299997 ], [ 0.0625599761, 51.4400399652 ], [ 0.0643399906, 51.443479981800003 ], [ 0.080571524193485, 51.445680396731056 ], [ 0.080999925889018, 51.446892716109765 ], [ 0.080441001057237, 51.448871645016546 ], [ 0.0778400369, 51.451480005699999 ], [ 0.078020747209052, 51.45329245288179 ], [ 0.0774200427, 51.454530007899997 ], [ 0.0759600512, 51.456380012099999 ], [ 0.0763500451, 51.457140009900002 ], [ 0.0771200382, 51.457700006800003 ], [ 0.0779800303, 51.458100004199999 ], [ 0.078512758952176, 51.458227120427388 ], [ 0.0785200256, 51.458300001799998 ], [ 0.078667939720033, 51.458264148647459 ], [ 0.078708074749298, 51.458273725405689 ], [ 0.0786200241, 51.458310001400001 ], [ 0.0772700329, 51.460090003700003 ], [ 0.074720054, 51.461950009799999 ], [ 0.0660999977, 51.467459986 ], [ 0.0636199664, 51.469789984499997 ], [ 0.0641499693, 51.471929984600003 ], [ 0.0643299684, 51.473189984 ], [ 0.064539971, 51.473689984700002 ], [ 0.0651899771, 51.474129983200001 ], [ 0.0645499693, 51.475209984199999 ], [ 0.0650699769, 51.476089984 ], [ 0.0687699975, 51.478129994500001 ], [ 0.0692300001, 51.478119996 ], [ 0.0692500004, 51.477579995699998 ], [ 0.0724100171, 51.477200002700002 ], [ 0.0747200204, 51.477170003399998 ], [ 0.0828299957, 51.474779988199998 ], [ 0.0846199957, 51.477119988200002 ], [ 0.087009994, 51.479779989599997 ], [ 0.0899499929, 51.481009988099999 ], [ 0.0942499892, 51.480689987600002 ], [ 0.0966799881, 51.480189988 ], [ 0.098004519442354, 51.479750511959821 ], [ 0.0981899877, 51.479989987499998 ], [ 0.101755508510351, 51.480647130237195 ], [ 0.1014399866, 51.481509987099997 ], [ 0.1036399868, 51.481569985699998 ], [ 0.104571376407, 51.481166108315186 ], [ 0.114306766570255, 51.482960387827177 ], [ 0.1100040469, 51.4842145669 ], [ 0.1079622189, 51.485157189900001 ], [ 0.1080811686, 51.491587885800001 ], [ 0.1081681673, 51.492316191100002 ], [ 0.1089765206, 51.4928911425 ], [ 0.1032335549, 51.496382413699997 ], [ 0.1011765738, 51.498109810800003 ], [ 0.1017473174, 51.497724648400002 ], [ 0.0904778271, 51.507096598799997 ], [ 0.0925300487, 51.508849966100001 ], [ 0.0962200003, 51.509329988899999 ], [ 0.0999899799, 51.509539999700003 ], [ 0.104539993, 51.509489994900001 ], [ 0.1114099929, 51.5096499952 ], [ 0.121094867777811, 51.512043063581011 ], [ 0.1211899814, 51.513659993200001 ], [ 0.127638579953837, 51.51365997148126 ], [ 0.1277599896, 51.513689971 ], [ 0.127906524946979, 51.513659970578829 ], [ 0.1308099958, 51.513659960799998 ], [ 0.136394746078578, 51.511918029738339 ], [ 0.1523700005, 51.508289982900003 ], [ 0.1606099355, 51.5061499786 ], [ 0.161586233843593, 51.505698750076803 ], [ 0.1659999538, 51.504039978500003 ], [ 0.171060005, 51.499869972900001 ], [ 0.172560023, 51.497039969699998 ], [ 0.1720099204, 51.4944661846 ], [ 0.172006924, 51.494443288399999 ], [ 0.1720076886, 51.4944203198 ], [ 0.1720122041, 51.494397521800003 ], [ 0.1720204256, 51.494375130100003 ], [ 0.173227025330885, 51.491719895495535 ], [ 0.1770263117, 51.489213016500003 ], [ 0.179850353930971, 51.487493234557355 ], [ 0.2005283318, 51.481616551199998 ], [ 0.200546359982121, 51.480723635591765 ], [ 0.210459994, 51.483519985299999 ], [ 0.215439986, 51.4825599841 ], [ 0.2193799123, 51.480309984100003 ], [ 0.2169973361, 51.478928640100001 ], [ 0.2169596817, 51.4789031579 ], [ 0.2169287522, 51.478874363199999 ], [ 0.2169052839, 51.478842939800003 ], [ 0.2168898359, 51.478809637200001 ], [ 0.216882775, 51.4787752461 ], [ 0.2168842691, 51.478740587099999 ], [ 0.2168942834, 51.478706483800003 ], [ 0.2169125794, 51.478673749199999 ], [ 0.2180099417, 51.477109994800003 ], [ 0.2136872912, 51.476586621199999 ], [ 0.213654894, 51.476581716299997 ], [ 0.2136233619, 51.476574959499999 ], [ 0.2135929656, 51.476566410499998 ], [ 0.2135639664, 51.4765561416 ], [ 0.2135366136, 51.476544241799999 ], [ 0.2135111423, 51.476530811700002 ], [ 0.2134877685, 51.476515968699999 ], [ 0.2134666958, 51.476499838599999 ], [ 0.2112061075, 51.474595728200001 ], [ 0.2111773988, 51.474567333499998 ], [ 0.2111557884, 51.474536585400003 ], [ 0.2111417542, 51.474504169 ], [ 0.2111356124, 51.474470808900001 ], [ 0.2108000564, 51.4691901761 ], [ 0.2097700727, 51.462349877500003 ], [ 0.204696368421326, 51.460454684993195 ], [ 0.2047922998, 51.456681064 ], [ 0.196489859675374, 51.456796560577402 ], [ 0.196270725909446, 51.456611634522254 ], [ 0.1967989972, 51.456292998499997 ], [ 0.2043949756, 51.456105906300003 ], [ 0.204823965, 51.453926929300003 ], [ 0.2052529635, 51.452816931599997 ], [ 0.2053609543, 51.451679975 ], [ 0.2027108929, 51.447722056499998 ], [ 0.2029788841, 51.446866064600002 ], [ 0.2066048937, 51.4460640936 ], [ 0.2061328738, 51.444807109300001 ], [ 0.2007688826, 51.443068044199997 ], [ 0.1996309245, 51.442747025099997 ], [ 0.1971639877, 51.441636994100001 ], [ 0.1979359928, 51.440098987 ], [ 0.200274971, 51.439041974600002 ], [ 0.1984509991, 51.4383469765 ], [ 0.1968630205, 51.436219961500001 ], [ 0.1958760281, 51.435817958299999 ], [ 0.1934300334, 51.434266959699997 ], [ 0.189906945601751, 51.433593419355603 ], [ 0.1907978323, 51.432103647300004 ], [ 0.1909700297, 51.4321799688 ], [ 0.188780031, 51.429719969 ], [ 0.1859521063, 51.429955694100002 ], [ 0.180560164429956, 51.427565106761143 ], [ 0.1747510723, 51.419389085299997 ], [ 0.1677130359, 51.415803045 ], [ 0.1581429872, 51.4159899908 ], [ 0.1541519879, 51.4142499923 ], [ 0.1548809883, 51.413152991499999 ], [ 0.1542379899, 51.4122559925 ], [ 0.1526499907, 51.408979992600003 ], [ 0.1523699938, 51.408709995300001 ], [ 0.1518999968, 51.408069996599998 ], [ 0.1509099951, 51.407439995899999 ], [ 0.1476500014, 51.408640002 ], [ 0.1440700041, 51.4092600018 ], [ 0.1377600151, 51.409330005299999 ], [ 0.1303800328, 51.409490014399999 ], [ 0.1154900074, 51.412239992799996 ], [ 0.1077199778, 51.414060000200003 ], [ 0.104352037650551, 51.415313482007633 ], [ 0.101619968, 51.415910004600001 ], [ 0.0957899884, 51.419760006300002 ], [ 0.095466172365539, 51.420005055162861 ], [ 0.0878899672, 51.425090000899999 ], [ 0.086865331978958, 51.426145936905492 ], [ 0.0861699312, 51.426610017599998 ], [ 0.0837699206, 51.428760023899997 ], [ 0.083769924778577, 51.429189406335936 ], [ 0.082275467793382, 51.43030848514708 ], [ 0.079970630781485, 51.430901846810535 ], [ 0.0794120850769, 51.431033773876884 ], [ 0.0779899804, 51.431239997900001 ] ] ] } }
]
}
